[{"OBJECT_NAME":"STARLINK-33812","OBJECT_ID":"2025-094R","EPOCH":"2026-03-09T21:25:27.600384","MEAN_MOTION":14.98334071,"ECCENTRICITY":0.00028544,"INCLINATION":70.002,"RA_OF_ASC_NODE":233.9336,"ARG_OF_PERICENTER":271.538,"MEAN_ANOMALY":88.5453,"EPHEMERIS_TYPE":0,"CLASSIFICATION_TYPE":"U","NORAD_CAT_ID":63879,"ELEMENT_SET_NO":999,"REV_AT_EPOCH":4723,"BSTAR":0.00019921278,"MEAN_MOTION_DOT":2.285e-5,"MEAN_MOTION_DDOT":0},{"OBJECT_NAME":"SL-8 DEB","OBJECT_ID":"1971-114C","EPOCH":"2026-03-09T10:06:38.914272","MEAN_MOTION":14.97936297,"ECCENTRICITY":0.00069633,"INCLINATION":74.0033,"RA_OF_ASC_NODE":186.861,"ARG_OF_PERICENTER":298.1447,"MEAN_ANOMALY":61.9034,"EPHEMERIS_TYPE":0,"CLASSIFICATION_TYPE":"U","NORAD_CAT_ID":5778,"ELEMENT_SET_NO":999,"REV_AT_EPOCH":88447,"BSTAR":0.0010014796,"MEAN_MOTION_DOT":0.00011794,"MEAN_MOTION_DDOT":0}]
